OBJECT_NAME,OBJECT_ID,EPOCH,MEAN_MOTION,ECCENTRICITY,INCLINATION,RA_OF_ASC_NODE,ARG_OF_PERICENTER,MEAN_ANOMALY,EPHEMERIS_TYPE,CLASSIFICATION_TYPE,NORAD_CAT_ID,ELEMENT_SET_NO,REV_AT_EPOCH,BSTAR,MEAN_MOTION_DOT,MEAN_MOTION_DDOT
TIANMU-1 21,2023-208C,2026-07-17T16:24:55.407168,15.35579067,.000693,97.4534,318.6344,195.0473,165.0566,0,U,58662,999,14224,.15376E-3,.5238E-4,0
TIANMU-1 22,2023-208D,2026-07-17T17:17:53.182752,15.31447729,.0002994,97.4526,315.0991,207.0144,153.0942,0,U,58663,999,14200,.13244E-3,.3943E-4,0
TIANMU-1 15,2024-004A,2026-07-17T16:52:23.990016,15.26928150,.000625,97.4671,24.8938,217.9872,142.0927,0,U,58700,999,14043,.10634E-3,.2738E-4,0
TIANMU-1 16,2024-004B,2026-07-17T16:36:59.209344,15.27031297,.0004589,97.4619,24.0983,233.9470,126.1344,0,U,58701,999,14043,.10203E-3,.2631E-4,0
TIANMU-1 17,2024-004C,2026-07-17T17:50:26.856960,15.27029365,.0004038,97.4646,24.6455,239.7915,120.2925,0,U,58702,999,14043,.10248E-3,.2643E-4,0
TIANMU-1 18,2024-004D,2026-07-17T17:16:13.128960,15.26944159,.0003967,97.4663,24.8846,213.4666,146.6323,0,U,58703,999,14043,.10402E-3,.2677E-4,0
INSAT-3DS,2024-033A,2026-07-17T15:22:27.007104,1.00270812,.0001159,0.0841,264.3115,223.5226,120.2950,0,U,58990,999,4737,0,-.165E-5,0
METEOR-M2 4,2024-039A,2026-07-17T17:05:02.677920,14.22432288,.0008257,98.7027,157.6291,82.5562,277.6554,0,U,59051,999,12360,.14466E-4,-.12E-6,0
GOES 19,2024-119A,2026-07-17T14:37:39.139392,1.00270922,.0000391,0.0157,138.2353,61.7008,239.7004,0,U,60133,999,726,0,-.258E-5,0
MTG-S1,2025-143A,2026-07-17T14:58:52.105152,1.00274262,.0003357,0.5833,345.6907,260.0967,273.9825,0,U,64723,999,372,0,-.16E-6,0
METOP-SGA1,2025-172A,2026-07-14T18:20:46.629312,14.19819127,.00070989,98.6631,254.9090,333.3306,26.7504,0,U,65159,999,4770,.2916334E-4,.19E-6,0
FENGYUN 3H,2025-219A,2026-07-17T06:30:15.435072,14.19924971,.0001092,98.6770,138.4561,62.3370,297.7917,0,U,65815,999,4165,.21451E-4,.2E-7,0
