TIANMU-1 21             
1 58662U 23208C   26198.68397462  .00005238  00000+0  15376-3 0  9995
2 58662  97.4534 318.6344 0006930 195.0473 165.0566 15.35579067142247
TIANMU-1 22             
1 58663U 23208D   26198.72075443  .00003943  00000+0  13244-3 0  9996
2 58663  97.4526 315.0991 0002994 207.0144 153.0942 15.31447729142007
TIANMU-1 15             
1 58700U 24004A   26198.70305544  .00002738  00000+0  10634-3 0  9990
2 58700  97.4671  24.8938 0006250 217.9872 142.0927 15.26928150140435
TIANMU-1 16             
1 58701U 24004B   26198.69235196  .00002631  00000+0  10203-3 0  9998
2 58701  97.4619  24.0983 0004589 233.9470 126.1344 15.27031297140439
TIANMU-1 17             
1 58702U 24004C   26198.74336640  .00002643  00000+0  10248-3 0  9993
2 58702  97.4646  24.6455 0004038 239.7915 120.2925 15.27029365140430
TIANMU-1 18             
1 58703U 24004D   26198.71959640  .00002677  00000+0  10402-3 0  9991
2 58703  97.4663  24.8846 0003967 213.4666 146.6323 15.26944159140438
INSAT-3DS               
1 58990U 24033A   26198.64059036 -.00000165  00000+0  00000+0 0  9993
2 58990   0.0841 264.3115 0001159 223.5226 120.2950  1.00270812 47377
METEOR-M2 4             
1 59051U 24039A   26198.71183655 -.00000012  00000+0  14466-4 0  9998
2 59051  98.7027 157.6291 0008257  82.5562 277.6554 14.22432288123600
GOES 19                 
1 60133U 24119A   26198.60948078 -.00000258  00000+0  00000+0 0  9992
2 60133   0.0157 138.2353 0000391  61.7008 239.7004  1.00270922  7261
MTG-S1                  
1 64723U 25143A   26198.62421418 -.00000016  00000+0  00000+0 0  9997
2 64723   0.5833 345.6907 0003357 260.0967 273.9825  1.00274262  3727
METOP-SGA1              
1 65159U 25172A   26195.76442858  .00000019  00000+0  29163-4 0  9994
2 65159  98.6631 254.9090 0007098 333.3306  26.7504 14.19819127 47700
FENGYUN 3H              
1 65815U 25219A   26198.27101198  .00000002  00000+0  21451-4 0  9997
2 65815  98.6770 138.4561 0001092  62.3370 297.7917 14.19924971 41650
